#dP2023  5 17 18  0  0.00000000      96 __u+U ITR00 EXT  IAC
## 2262 324000.00000000   900.00000000 60081 0.7500000000000
+  118   C06C07C08C09C10C11C12C13C14C16C19C20C21C22C23C24C25
+        C26C27C28C29C30C32C33C34C35C36C37C38C39C40C41C42C43
+        C44C45C46E02E04E05E07E08E09E10E11E12E13E14E15E18E19
+        E21E24E25E26E27E30E31E33E34E36G01G02G03G04G05G06G07
+        G08G09G10G11G12G13G14G15G16G17G18G19G20G21G22G23G24
+        G25G26G27G28G29G30G31G32J02J03J04R01R02R03R04R05R07
+        R08R09R11R12R13R14R15R16R17R18R19R20R21R22R24R25  0
++         8 10  9 10  9  7  8  9  9  9  8  9  7  7  7  8  8
++         7  9  9  9  8  9  9  9  8  8  8 10 10  8  8  8  7
++         8  9  7  7  7  6  7  7  7  7  6  7  8  7  7  7  8
++         8  7  7  9  8  8  7  9  7  7  6  7  7  7  6  7  7
++         8  7  7  7  7  7  9  6  7  7  7  8  7  7  6  6  7
++         8  8 10  7  7  7  7  8  7  9 10  8  7  9  8  7  7
++         8  6  8  9  8  9  9  7  7  8  9  8  7  8  6  9  0
%c M  cc GPS ccc cccc cccc cccc cccc ccccc ccccc ccccc ccccc
%c cc cc ccc ccc cccc cccc cccc cccc ccccc ccccc ccccc ccccc
%f  0.0000000  0.000000000  0.00000000000  0.000000000000000
%f  0.0000000  0.000000000  0.00000000000  0.000000000000000
%i    0    0    0    0      0      0      0      0         0
%i    0    0    0    0      0      0      0      0         0
/* IAC                                ULTRA-RAPID PREDICTION
/* S/V CLOCKS ARE ALIGNED TO GNSS TIME                      
/* G:C1WC2W R:C1PC2P E:C1XC5X C:C2IC6I J:C1CC2S             
/* PCV:IGS20_2247 OL/AL:FES2004  NONE     YN ORB:CoN CLK:CoN
*  2023 05 18  3  0  0.00000000
PC06  -2564.056060  37490.609819 -18824.876855   -190.147644
PC07 -11416.540615  25774.212439  31370.657948    -35.134620
PC08 -18850.884676  34800.599017 -14799.082679    482.898942
PC09   3688.957751  40527.638947  -9460.273041    641.246692
PC10  -1187.625042  27389.667948  32340.960486    -61.236829
PC11  18834.476389  11134.617313 -17272.896294    625.138563
PC12  13991.011769  24124.907159  -1057.276423    646.870498
PC13 -12276.122866  34907.891737 -20305.488121    276.979640
PC14  27336.440254   3234.949755  -4770.479168    275.267098
PC16  -4734.845826  35446.061793 -21866.936569     74.784421
PC19 -27339.332963   3096.984452  -4536.032653   -911.410881
PC20 -23834.014176  -8160.691643  11978.824685    561.260149
PC21   5633.800333  15394.451527 -22568.208842   -915.518247
PC22 -15218.355763  13152.626637 -19325.204852   -483.281531
PC23  15708.339245 -22885.017488   2887.385017   -931.477251
PC24  11959.164439  11555.246424  22402.725499    -42.007615
PC25  19550.611821  -9545.844183  17457.902673    128.738507
PC26  -1192.498974  23812.413367  14514.314602   -121.829040
PC27  -8681.142336 -25576.779378  -7066.382848    141.792795
PC28   5203.849215 -18945.231488 -19817.793852    104.941158
PC29 -17563.628817    321.084839  21673.287296    121.839103
PC30 -18920.928134 -18186.919911   9507.175548     -0.326483
PC32  -5609.285979 -15393.282840  22606.671592   -560.829264
PC33  27366.824954  -3242.847623   4484.874865   -882.926265
PC34  19236.612584  17152.157150 -10689.517791    173.089338
PC35  -5173.903203  18611.663700  20109.993241    625.457000
PC36 -19698.057159   8372.960257 -17884.261994   -435.421940
PC37   2677.176131 -24181.641484 -13637.705273   -784.172827
PC38 -22900.873954  34908.859161  -6368.855776     79.085696
PC39  -6844.312381  32188.645851 -26188.680707     -2.965665
PC40 -15819.992783  19329.768414  33912.773354    -23.509246
PC41  15849.431465 -13033.139790  18975.435165   -942.126006
PC42  23050.946540   8833.195919 -12998.163908   -687.359620
PC43  17975.273892    518.044129 -21347.587377     21.925453
PC44   9468.963560  25229.440816   7168.462451    109.981048
PC45 -15476.957161  23106.677566  -2424.376402    -98.933792
PC46 -12885.873265  -9953.167576 -22661.734035    -54.825340
PE02  24641.365277 -15943.217947  -3800.539754     38.762038
PE04   2722.318752  19767.525292 -21850.628470   -124.698048
PE05  26559.371336   7756.010796  10534.760837    -66.458596
PE07 -20679.764440 -19552.029182   8128.138699    -45.873727
PE08  -2480.064596 -19556.653535  22083.566240    -84.733253
PE09  20653.017368  19526.317359  -8288.814378    -18.468400
PE10   3853.317290  28449.813365  -7217.921211   -534.518002
PE11   9925.220390  22537.387991 -16425.396324   1956.774043
PE12  -2378.243164  29406.174017   2245.067559   -543.116611
PE13  -9497.756476 -23139.063113  15835.608349    -19.189066
PE14  28489.205993   8115.038492 -13022.683089    228.230131
PE15   2544.706121 -29381.014853  -2609.510270    -22.593100
PE18 -20697.444050  -6856.910740   8942.521185     76.562001
PE19 -18644.456204   6421.254840 -22060.849766  -2508.975881
PE21 -26103.102805   3354.097327 -13550.450740   -529.729863
PE24  11835.590379  12494.840798  24065.476556   -104.758912
PE25  25992.201855  -3081.654955  13825.735727   -605.239305
PE26 -16058.238261  -2548.717273  24732.704242    107.397809
PE27 -12589.765397 -11929.545505 -23987.011986    -52.151272
PE30   8807.791986 -20103.761943 -19866.674851   -181.710049
PE31  -8197.521615  20033.763067  20194.383403   -523.978582
PE33 -12991.058714  18217.829162  19368.551278   -444.321399
PE34  12911.303726 -18385.364855 -19282.280859    -45.991109
PE36  15831.472595   3411.540346 -24779.761759    -57.718609
PG01 -13198.071715  13574.309894  18137.211419    184.551047
PG02 -12618.299806 -15594.286546  18154.741991   -595.109896
PG03 -22843.715458  13141.024605  -2852.273441   -300.065801
PG04 -15450.998675   6493.509567 -20617.088292     44.257074
PG05  23260.761519  -2468.713888 -12867.689891   -127.610736
PG06   5728.913653  23110.277473 -11606.409497    587.932734
PG07  -6447.048166  24571.404553  -6372.726089    175.565253
PG08 -22845.127362  -3508.494786  13356.492342   -122.938295
PG09  -5344.871360  14680.887787 -21544.863866   -156.457931
PG10  -2057.844030 -15272.776051  21769.930022    -37.375085
PG11  12999.407174  10672.500391 -20558.891120   -200.843593
PG12  24490.235149 -10156.233080   -495.153097   -377.358289
PG13  22107.348987  12103.272532   8527.354128    521.465914
PG14  -1544.787044  16770.779037  20515.540568     60.530415
PG15  22975.334229    466.894219  13081.706001     40.525804
PG16 -22080.231695  -2829.030921 -15125.456501   -500.066372
PG17   8814.328844  20048.870217  15380.738965    715.189938
PG18   4890.456112 -25763.171905  -3658.421685   -270.759221
PG19  16050.832628  20032.539462   7176.471498    318.347002
PG20  18143.205993   3756.133031 -18926.237119    432.996752
PG21 -15240.526727   3626.425293  21912.004363    153.758562
PG22 -17937.532614 -19133.723388   5154.471563    483.122659
PG23  10829.411034 -18000.777582  16164.141169     25.099583
PG24  14478.211335  -9340.897215  19750.792210   -192.635831
PG25  17486.245004 -17019.233170 -10472.337119    443.579734
PG26 -12856.348862 -10466.938576 -20920.649188    240.651924
PG27 -23229.815049 -12811.529077   3443.293096     35.225663
PG28  -5848.383455 -24029.906057  -9716.492303     78.462677
PG29   9124.578626 -11782.793366 -22041.143407   -599.801373
PG30    855.976694  26101.640660   4080.922994   -516.569335
PG31 -11267.151314 -15930.691949 -17998.925091   -216.321403
PG32 -12511.221674 -19542.327345  13283.275285   -479.108350
PJ02 -30293.878002  28058.488717  13399.044637     -0.019649
PJ03 -26056.167459  25221.964238  26575.915957      4.376442
PJ04 -32405.642496  20222.989748 -12621.072738     94.608880
PR01 -22843.090468  -7684.375353   8336.910289     57.699504
PR02 -23453.016115    220.537321 -10053.627705    -22.829374
PR03 -10355.417365   8482.757279 -21673.336171     78.023380
PR04   8169.314345  11617.874971 -21151.964153    187.597790
PR05  22187.268026   8669.794825  -9079.244368    112.727688
PR07   9411.960106  -8822.765688  22041.738885     56.119063
PR08  -8419.586985 -11716.643777  21105.914116    -70.826560
PR09  18204.378355 -12032.871825  13295.599485    120.755543
PR11   3995.455745 -17935.158684 -17690.400525    -58.310263
PR12 -10886.701567  -3950.689369 -22703.162505     27.353572
PR13 -17886.059402  10428.296500 -14912.917947    -35.155095
PR14 -14830.573397  20439.801055   3532.290274     24.677880
PR15  -3073.401509  17348.602869  18462.357933     89.310941
PR16  10608.504392   4067.360415  22850.860231     14.663924
PR17  -2349.623015  18079.380860  17859.297534    630.911727
PR18   6598.274622  24386.935743   3321.951039     82.054966
PR19  11417.544035  19516.560279 -11814.154400   -233.011862
PR20  10721.426153    -53.826575 -23140.675001    -93.030509
PR21   1587.797781 -19056.885692 -16875.037611     -8.292497
PR22  -6207.090327 -24641.792173  -2298.068239     81.493847
PR24 -10986.302770   1214.680173  22998.134275    171.259337
PR25   3510.137442 -17864.188250 -17857.838040     61.404823
EOF
